NORAD_CAT_ID,OBJECT_NAME,OBJECT_TYPE,EPOCH,MEAN_MOTION,ECCENTRICITY,INCLINATION,RA_OF_ASC_NODE,ARG_OF_PERICENTER,MEAN_ANOMALY,BSTAR,MEAN_MOTION_DOT,MEAN_MOTION_DDOT,TLE_LINE0,TLE_LINE1,TLE_LINE2,SEMIMAJOR_AXIS,PERIOD,APOGEE,PERIGEE,DECAYED
49425.0,STARLINK-3139,PAYLOAD,2024-05-26 14:36:42,15.08837611,0.0001438,53.218,276.4306,85.122,274.9936,0.00021335,3.109e-05,0.0,0 STARLINK-3139,1 49425U 21104T   24147.60882754  .00003109  00000-0  21335-3 0  9990,2 49425  53.2180 276.4306 0001438  85.1220 274.9936 15.08837611140192,6917.888,95.438,540.747,538.758,0.0
49425.0,STARLINK-3139,PAYLOAD,2024-05-26 17:47:28,15.08846032,0.0001215,53.2169,275.8428,94.7946,265.3185,0.00040745,6.204e-05,0.0,0 STARLINK-3139,1 49425U 21104T   24147.74130316  .00006204  00000-0  40745-3 0  9990,2 49425  53.2169 275.8428 0001215  94.7946 265.3185 15.08846032141290,6917.862,95.437,540.567,538.886,0.0
49425.0,STARLINK-3139,PAYLOAD,2024-05-27 12:52:06,15.0884387,0.0001472,53.2169,272.2753,83.3381,276.7779,0.00022895,3.358e-05,0.0,0 STARLINK-3139,1 49425U 21104T   24148.53618627  .00003358  00000-0  22895-3 0  9997,2 49425  53.2169 272.2753 0001472  83.3381 276.7779 15.08843870141410,6917.869,95.437,540.752,538.715,0.0
49425.0,STARLINK-3139,PAYLOAD,2024-05-27 14:27:29,15.08843665,0.0001288,53.2163,271.9774,97.0884,263.0255,0.0001967,2.844e-05,0.0,0 STARLINK-3139,1 49425U 21104T   24148.60242514  .00002844  00000-0  19670-3 0  9999,2 49425  53.2163 271.9774 0001288  97.0884 263.0255 15.08843665140349,6917.869,95.437,540.625,538.843,0.0
49425.0,STARLINK-3139,PAYLOAD,2024-05-27 17:38:15,15.0885487,0.0001553,53.2188,271.3765,95.1429,264.9741,-4.5463e-05,-1.012e-05,0.0,0 STARLINK-3139,1 49425U 21104T   24148.73489867 -.00001012  00000-0 -45463-4 0  9995,2 49425  53.2188 271.3765 0001553  95.1429 264.9741 15.08854870141441,6917.835,95.437,540.774,538.626,0.0
49425.0,STARLINK-3139,PAYLOAD,2024-05-28 12:42:53,15.08846727,0.0001716,53.2182,267.8064,114.4924,245.6247,0.00016583,2.353e-05,0.0,0 STARLINK-3139,1 49425U 21104T   24149.52978121  .00002353  00000-0  16583-3 0  9996,2 49425  53.2182 267.8064 0001716 114.4924 245.6247 15.08846727141565,6917.86,95.437,540.912,538.538,0.0
49425.0,STARLINK-3139,PAYLOAD,2024-05-28 14:18:15,15.08849986,0.0001621,53.2182,267.5083,114.5641,245.552,0.00015243,2.139e-05,0.0,0 STARLINK-3139,1 49425U 21104T   24149.59601758  .00002139  00000-0  15243-3 0  9996,2 49425  53.2182 267.5083 0001621 114.5641 245.5520 15.08849986140499,6917.85,95.437,540.836,538.593,0.0
49425.0,STARLINK-3139,PAYLOAD,2024-05-29 12:33:40,15.08841796,0.0001405,53.2163,263.3542,91.5654,268.5499,-1.1793e-05,-4.76e-06,0.0,0 STARLINK-3139,1 49425U 21104T   24150.52338376 -.00000476  00000-0 -11793-4 0  9995,2 49425  53.2163 263.3542 0001405  91.5654 268.5499 15.08841796141717,6917.875,95.437,540.712,538.768,0.0
49425.0,STARLINK-3139,PAYLOAD,2024-05-29 14:09:03,15.08843499,0.0001336,53.2166,263.057,92.4691,267.6454,-3.8099e-05,-8.94e-06,0.0,0 STARLINK-3139,1 49425U 21104T   24150.58962358 -.00000894  00000-0 -38099-4 0  9996,2 49425  53.2166 263.0570 0001336  92.4691 267.6454 15.08843499140646,6917.87,95.437,540.659,538.81,0.0
49425.0,STARLINK-3139,PAYLOAD,2024-05-30 13:59:50,15.08852129,0.0001391,53.2175,258.597,94.5468,265.5683,0.00017492,2.498e-05,0.0,0 STARLINK-3139,1 49425U 21104T   24151.58321958  .00002498  00000-0  17492-3 0  9995,2 49425  53.2175 258.5970 0001391  94.5468 265.5683 15.08852129140792,6917.843,95.437,540.671,538.746,0.0
49425.0,STARLINK-3139,PAYLOAD,2024-05-31 05:53:41,15.08844593,0.0001499,53.2187,255.6287,91.7745,268.3419,0.00020472,2.972e-05,0.0,0 STARLINK-3139,1 49425U 21104T   24152.24562253  .00002972  00000-0  20472-3 0  9993,2 49425  53.2187 255.6287 0001499  91.7745 268.3419 15.08844593141975,6917.866,95.437,540.768,538.694,0.0
49425.0,STARLINK-3139,PAYLOAD,2024-05-31 13:50:37,15.08846653,0.0001445,53.2177,254.137,105.0549,255.0604,0.000181,2.594e-05,0.0,0 STARLINK-3139,1 49425U 21104T   24152.57682068  .00002594  00000-0  18100-3 0  9991,2 49425  53.2177 254.1370 0001445 105.0549 255.0604 15.08846653140947,6917.86,95.437,540.725,538.725,0.0
49425.0,STARLINK-3139,PAYLOAD,2024-06-01 13:41:24,15.08836325,0.0001393,53.2173,249.6774,93.0333,267.0819,-7.4915e-05,-1.48e-05,0.0,0 STARLINK-3139,1 49425U 21104T   24153.57042535 -.00001480  00000-0 -74915-4 0  9993,2 49425  53.2173 249.6774 0001393  93.0333 267.0819 15.08836325142172,6917.892,95.438,540.72,538.793,0.0
49425.0,STARLINK-3139,PAYLOAD,2024-06-02 05:35:16,15.08828162,0.0001606,53.2163,246.7025,94.1731,265.9444,-4.0668e-05,-9.35e-06,0.0,0 STARLINK-3139,1 49425U 21104T   24154.23283397 -.00000935  00000-0 -40668-4 0  9992,2 49425  53.2163 246.7025 0001606  94.1731 265.9444 15.08828162142271,6917.917,95.438,540.893,538.671,0.0
49425.0,STARLINK-3139,PAYLOAD,2024-06-02 11:56:49,15.08829754,0.0001391,53.2169,245.5132,92.3991,267.7161,-7.7057e-05,-1.514e-05,0.0,0 STARLINK-3139,1 49425U 21104T   24154.49779408 -.00001514  00000-0 -77057-4 0  9999,2 49425  53.2169 245.5132 0001391  92.3991 267.7161 15.08829754141231,6917.912,95.438,540.739,538.814,0.0
49425.0,STARLINK-3139,PAYLOAD,2024-06-03 11:47:36,15.0884534,0.0001577,53.2177,241.0528,91.2343,268.8829,0.00027459,4.085e-05,0.0,0 STARLINK-3139,1 49425U 21104T   24155.49139335  .00004085  00000-0  27459-3 0  9993,2 49425  53.2177 241.0528 0001577  91.2343 268.8829 15.08845340142463,6917.864,95.437,540.82,538.638,0.0
49425.0,STARLINK-3139,PAYLOAD,2024-06-03 18:09:08,15.08855424,0.0001507,53.2165,239.8628,89.8999,270.2165,0.00055183,8.509e-05,0.0,0 STARLINK-3139,1 49425U 21104T   24155.75634912  .00008509  00000-0  55183-3 0  9993,2 49425  53.2165 239.8628 0001507  89.8999 270.2165 15.08855424141428,6917.833,95.437,540.741,538.656,0.0
49425.0,STARLINK-3139,PAYLOAD,2024-06-04 11:38:22,15.08860729,0.0001202,53.2161,236.5926,83.9027,276.2102,0.00056178,8.669e-05,0.0,0 STARLINK-3139,1 49425U 21104T   24156.48498630  .00008669  00000-0  56178-3 0  9991,2 49425  53.2161 236.5926 0001202  83.9027 276.2102 15.08860729141531,6917.817,95.436,540.514,538.851,0.0
49425.0,STARLINK-3139,PAYLOAD,2024-06-04 22:46:04,15.08859088,0.0001288,53.214,234.5107,82.2873,277.8265,0.00037142,5.631e-05,0.0,0 STARLINK-3139,1 49425U 21104T   24156.94866258  .00005631  00000-0  37142-3 0  9993,2 49425  53.2140 234.5107 0001288  82.2873 277.8265 15.08859088141603,6917.822,95.436,540.578,538.796,0.0
49425.0,STARLINK-3139,PAYLOAD,2024-06-05 11:29:09,15.08843416,0.0001511,53.2143,232.1301,97.2993,262.8171,1.3757e-06,-2.66e-06,0.0,0 STARLINK-3139,1 49425U 21104T   24157.47858571 -.00000266  00000-0  13757-5 0  9999,2 49425  53.2143 232.1301 0001511  97.2993 262.8171 15.08843416142760,6917.87,95.437,540.78,538.69,0.0
49425.0,STARLINK-3139,PAYLOAD,2024-06-05 14:39:56,15.08846268,0.0001624,53.2173,231.5341,109.0202,251.0967,0.00010498,1.383e-05,0.0,0 STARLINK-3139,1 49425U 21104T   24157.61106494  .00001383  00000-0  10498-3 0  9992,2 49425  53.2173 231.5341 0001624 109.0202 251.0967 15.08846268141704,6917.861,95.437,540.85,538.603,0.0
49425.0,STARLINK-3139,PAYLOAD,2024-06-06 11:19:57,15.0883217,0.0001262,53.2139,227.6708,81.75,278.3636,-4.6367e-05,-1.026e-05,0.0,0 STARLINK-3139,1 49425U 21104T   24158.47219425 -.00001026  00000-0 -46367-4 0  9997,2 49425  53.2139 227.6708 0001262  81.7500 278.3636 15.08832170142910,6917.904,95.438,540.642,538.896,0.0
49425.0,STARLINK-3139,PAYLOAD,2024-06-07 09:35:21,15.08844654,0.0001389,53.2152,223.5077,86.0225,274.0926,0.0003703,5.611e-05,0.0,0 STARLINK-3139,1 49425U 21104T   24159.39955547  .00005611  00000-0  37030-3 0  9999,2 49425  53.2152 223.5077 0001389  86.0225 274.0926 15.08844654143052,6917.866,95.437,540.692,538.77,0.0
49425.0,STARLINK-3139,PAYLOAD,2024-06-07 20:43:03,15.08852417,0.0001332,53.2144,221.426,80.4016,279.7126,0.00049586,7.615e-05,0.0,0 STARLINK-3139,1 49425U 21104T   24159.86323312  .00007615  00000-0  49586-3 0  9995,2 49425  53.2144 221.4260 0001332  80.4016 279.7126 15.08852417142046,6917.842,95.437,540.629,538.786,0.0
49425.0,STARLINK-3139,PAYLOAD,2024-06-08 14:12:16,15.08864877,0.0001383,53.2155,218.1561,87.0241,273.0909,0.00048978,7.521e-05,0.0,0 STARLINK-3139,1 49425U 21104T   24160.59186312  .00007521  00000-0  48978-3 0  9994,2 49425  53.2155 218.1561 0001383  87.0241 273.0909 15.08864877142155,6917.804,95.436,540.626,538.713,0.0
49425.0,STARLINK-3139,PAYLOAD,2024-06-08 20:33:49,15.08847232,0.000152,53.2147,216.9656,85.9816,274.135,-8.057e-06,-4.16e-06,0.0,0 STARLINK-3139,1 49425U 21104T   24160.85682819 -.00000416  00000-0 -80570-5 0  9990,2 49425  53.2147 216.9656 0001520  85.9816 274.1350 15.08847232143277,6917.858,95.437,540.775,538.672,0.0
49425.0,STARLINK-3139,PAYLOAD,2024-06-09 12:27:42,15.08830505,0.0001498,53.2157,213.9933,93.2238,266.8925,-0.00019555,-3.398e-05,0.0,0 STARLINK-3139,1 49425U 21104T   24161.51923691 -.00003398  00000-0 -19555-3 0  9995,2 49425  53.2157 213.9933 0001498  93.2238 266.8925 15.08830505143379,6917.909,95.438,540.811,538.738,0.0
49425.0,STARLINK-3139,PAYLOAD,2024-06-09 20:24:37,15.08834611,0.0001498,53.2157,212.5068,96.2583,263.858,-4.1309e-05,-9.45e-06,0.0,0 STARLINK-3139,1 49425U 21104T   24161.85043709 -.00000945  00000-0 -41309-4 0  9993,2 49425  53.2157 212.5068 0001498  96.2583 263.8580 15.08834611142341,6917.897,95.438,540.798,538.726,0.0
49425.0,STARLINK-3139,PAYLOAD,2024-06-10 12:18:29,15.08843126,0.0001429,53.2153,209.5329,99.6234,260.492,0.00058122,8.975e-05,0.0,0 STARLINK-3139,1 49425U 21104T   24162.51283867  .00008975  00000-0  58122-3 0  9997,2 49425  53.2153 209.5329 0001429  99.6234 260.4920 15.08843126143520,6917.871,95.437,540.724,538.747,0.0
49425.0,STARLINK-3139,PAYLOAD,2024-06-10 20:15:24,15.08846591,0.0001427,53.2153,208.0456,94.0451,266.0705,0.00050915,7.826e-05,0.0,0 STARLINK-3139,1 49425U 21104T   24162.84403835  .00007826  00000-0  50915-3 0  9998,2 49425  53.2153 208.0456 0001427  94.0451 266.0705 15.08846591142490,6917.86,95.437,540.712,538.738,0.0
